NORAD_CAT_ID,OBJECT_NAME,OBJECT_TYPE,EPOCH,MEAN_MOTION,ECCENTRICITY,INCLINATION,RA_OF_ASC_NODE,ARG_OF_PERICENTER,MEAN_ANOMALY,BSTAR,MEAN_MOTION_DOT,MEAN_MOTION_DDOT,TLE_LINE0,TLE_LINE1,TLE_LINE2,SEMIMAJOR_AXIS,PERIOD,APOGEE,PERIGEE,DECAYED
51787.0,STARLINK-3619,PAYLOAD,2023-06-01 20:30:15,15.0884121,0.0001133,53.2156,211.4257,72.4095,287.7021,6.633e-05,7.68e-06,0.0,0 STARLINK-3619,1 51787U 22017V   23152.85434514  .00000768  00000-0  66330-4 0  9990,2 51787  53.2156 211.4257 0001133  72.4095 287.7021 15.08841210 71161,6917.877,95.437,540.525,538.958,0.0
51787.0,STARLINK-3619,PAYLOAD,2023-06-01 23:41:02,15.08834788,0.0001148,53.2154,210.8308,92.26,267.8523,7.5652e-06,-1.67e-06,0.0,0 STARLINK-3619,1 51787U 22017V   23152.98683126 -.00000167  00000-0  75652-5 0  9991,2 51787  53.2154 210.8308 0001148  92.2600 267.8523 15.08834788 71187,6917.896,95.438,540.555,538.967,0.0
51787.0,STARLINK-3619,PAYLOAD,2023-06-02 10:48:44,15.08833511,0.0001104,53.2155,208.7487,86.9526,273.1592,-1.4116e-05,-5.12e-06,0.0,0 STARLINK-3619,1 51787U 22017V   23153.45051421 -.00000512  00000-0 -14116-4 0  9993,2 51787  53.2155 208.7487 0001104  86.9526 273.1592 15.08833511 69615,6917.9,95.438,540.529,539.001,0.0
51787.0,STARLINK-3619,PAYLOAD,2023-06-02 20:21:03,15.08834347,0.0001199,53.2165,206.9676,93.8901,266.2228,-2.1006e-05,-6.22e-06,0.0,0 STARLINK-3619,1 51787U 22017V   23153.84795559 -.00000622  00000-0 -21006-4 0  9991,2 51787  53.2165 206.9676 0001199  93.8901 266.2228 15.08834347 69677,6917.898,95.438,540.592,538.933,0.0
51787.0,STARLINK-3619,PAYLOAD,2023-06-03 10:39:31,15.08834157,0.0001148,53.216,204.29,89.7829,270.3295,-3.7625e-05,-8.86e-06,0.0,0 STARLINK-3619,1 51787U 22017V   23154.44411818 -.00000886  00000-0 -37625-4 0  9997,2 51787  53.2160 204.2900 0001148  89.7829 270.3295 15.08834157 71403,6917.898,95.438,540.557,538.969,0.0
51787.0,STARLINK-3619,PAYLOAD,2023-06-03 20:11:50,15.08833812,0.0001132,53.2163,202.5064,88.9421,271.1701,1.0024e-05,-1.28e-06,0.0,0 STARLINK-3619,1 51787U 22017V   23154.84155818 -.00000128  00000-0  10024-4 0  9998,2 51787  53.2163 202.5064 0001132  88.9421 271.1701 15.08833812 69821,6917.899,95.438,540.547,538.981,0.0
51787.0,STARLINK-3619,PAYLOAD,2023-06-04 10:30:18,15.08835922,0.0001022,53.2156,199.8281,81.5746,278.5362,8.7016e-05,1.097e-05,0.0,0 STARLINK-3619,1 51787U 22017V   23155.43771624  .00001097  00000-0  87016-4 0  9993,2 51787  53.2156 199.8281 0001022  81.5746 278.5362 15.08835922 69917,6917.893,95.438,540.465,539.051,0.0
51787.0,STARLINK-3619,PAYLOAD,2023-06-04 20:02:37,15.08836381,0.0001032,53.2156,198.0438,77.4196,282.6912,5.1988e-05,5.4e-06,0.0,0 STARLINK-3619,1 51787U 22017V   23155.83515792  .00000540  00000-0  51988-4 0  9990,2 51787  53.2156 198.0438 0001032  77.4196 282.6912 15.08836381 69979,6917.891,95.438,540.47,539.043,0.0
51787.0,STARLINK-3619,PAYLOAD,2023-06-05 02:24:10,15.0883355,0.0001019,53.2156,196.8542,77.4094,282.7012,7.5894e-05,9.2e-06,0.0,0 STARLINK-3619,1 51787U 22017V   23156.10011956  .00000920  00000-0  75894-4 0  9998,2 51787  53.2156 196.8542 0001019  77.4094 282.7012 15.08833550 71658,6917.9,95.438,540.47,539.06,0.0
51787.0,STARLINK-3619,PAYLOAD,2023-06-05 11:56:28,15.08839461,0.0001026,53.2157,195.0699,77.0438,283.0669,7.6569e-05,9.31e-06,0.0,0 STARLINK-3619,1 51787U 22017V   23156.49755699  .00000931  00000-0  76569-4 0  9991,2 51787  53.2157 195.0699 0001026  77.0438 283.0669 15.08839461 70073,6917.882,95.438,540.457,539.037,0.0
51787.0,STARLINK-3619,PAYLOAD,2023-06-06 03:50:20,15.08841001,0.0001038,53.2157,192.0963,76.4894,283.6213,5.2537e-05,5.48e-06,0.0,0 STARLINK-3619,1 51787U 22017V   23157.15995671  .00000548  00000-0  52537-4 0  9994,2 51787  53.2157 192.0963 0001038  76.4894 283.6213 15.08841001 71813,6917.877,95.437,540.46,539.024,0.0
51787.0,STARLINK-3619,PAYLOAD,2023-06-06 08:36:29,15.08843623,0.0001031,53.2157,191.2043,76.1564,283.9543,6.4951e-05,7.46e-06,0.0,0 STARLINK-3619,1 51787U 22017V   23157.35867432  .00000746  00000-0  64951-4 0  9992,2 51787  53.2157 191.2043 0001031  76.1564 283.9543 15.08843623 70200,6917.869,95.437,540.448,539.021,0.0
51787.0,STARLINK-3619,PAYLOAD,2023-06-07 06:51:53,15.08839864,0.0001,53.2158,187.0412,76.3055,283.8048,3.9483e-05,3.41e-06,0.0,0 STARLINK-3619,1 51787U 22017V   23158.28603591  .00000341  00000-0  39483-4 0  9992,2 51787  53.2158 187.0412 0001000  76.3055 283.8048 15.08839864 71984,6917.881,95.438,540.438,539.054,0.0
51787.0,STARLINK-3619,PAYLOAD,2023-06-07 11:38:02,15.08843163,9.95e-05,53.2157,186.1484,80.188,279.9224,3.8814e-05,3.3e-06,0.0,0 STARLINK-3619,1 51787U 22017V   23158.48475338  .00000330  00000-0  38814-4 0  9995,2 51787  53.2157 186.1484 0000995  80.1880 279.9224 15.08843163 70374,6917.871,95.437,540.424,539.047,0.0
51787.0,STARLINK-3619,PAYLOAD,2023-06-08 08:18:03,15.08838725,0.0001024,53.2154,182.2823,83.8526,276.2583,-9.729e-06,-4.43e-06,0.0,0 STARLINK-3619,1 51787U 22017V   23159.34587721 -.00000443  00000-0 -97290-5 0  9992,2 51787  53.2154 182.2823 0001024  83.8526 276.2583 15.08838725 72149,6917.884,95.438,540.458,539.041,0.0
51787.0,STARLINK-3619,PAYLOAD,2023-06-08 11:28:50,15.08838367,0.0001028,53.2154,181.6877,83.1162,276.9947,-1.2458e-05,-4.86e-06,0.0,0 STARLINK-3619,1 51787U 22017V   23159.47835758 -.00000486  00000-0 -12458-4 0  9991,2 51787  53.2154 181.6877 0001028  83.1162 276.9947 15.08838367 70527,6917.885,95.438,540.462,539.039,0.0
51787.0,STARLINK-3619,PAYLOAD,2023-06-09 06:33:27,15.08838789,0.0001041,53.2153,178.119,85.3937,274.7174,2.3464e-05,8.6e-07,0.0,0 STARLINK-3619,1 51787U 22017V   23160.27323644  .00000086  00000-0  23464-4 0  9990,2 51787  53.2153 178.1190 0001041  85.3937 274.7174 15.08838789 70643,6917.884,95.438,540.469,539.029,0.0
51787.0,STARLINK-3619,PAYLOAD,2023-06-09 17:41:09,15.08837106,0.0001044,53.2152,176.0375,82.4169,277.6942,6.6862e-06,-1.81e-06,0.0,0 STARLINK-3619,1 51787U 22017V   23160.73691863 -.00000181  00000-0  66862-5 0  9999,2 51787  53.2152 176.0375 0001044  82.4169 277.6942 15.08837106 72359,6917.889,95.438,540.476,539.032,0.0
51787.0,STARLINK-3619,PAYLOAD,2023-06-10 07:59:38,15.08833359,0.0001078,53.2152,173.3622,81.7227,278.3887,9.275e-06,-1.4e-06,0.0,0 STARLINK-3619,1 51787U 22017V   23161.33308340 -.00000140  00000-0  92750-5 0  9991,2 51787  53.2152 173.3622 0001078  81.7227 278.3887 15.08833359 70808,6917.901,95.438,540.511,539.02,0.0
51787.0,STARLINK-3619,PAYLOAD,2023-06-10 17:31:57,15.08835085,0.0001072,53.2153,171.5781,81.4092,278.7021,2.0729e-05,4.2e-07,0.0,0 STARLINK-3619,1 51787U 22017V   23161.73052329  .00000042  00000-0  20729-4 0  9994,2 51787  53.2153 171.5781 0001072  81.4092 278.7021 15.08835085 70864,6917.895,95.438,540.502,539.019,0.0
51787.0,STARLINK-3619,PAYLOAD,2023-06-11 09:25:48,15.08838914,0.0001077,53.2154,168.6045,79.2678,280.8435,4.139e-05,3.71e-06,0.0,0 STARLINK-3619,1 51787U 22017V   23162.39292174  .00000371  00000-0  41390-4 0  9993,2 51787  53.2154 168.6045 0001077  79.2678 280.8435 15.08838914 72606,6917.884,95.438,540.494,539.004,0.0
51787.0,STARLINK-3619,PAYLOAD,2023-06-11 17:22:44,15.0883793,0.0001082,53.2156,167.1177,81.0407,279.0707,4.9814e-05,5.05e-06,0.0,0 STARLINK-3619,1 51787U 22017V   23162.72412248  .00000505  00000-0  49814-4 0  9994,2 51787  53.2156 167.1177 0001082  81.0407 279.0707 15.08837930 71018,6917.887,95.438,540.5,539.003,0.0
51787.0,STARLINK-3619,PAYLOAD,2023-06-12 17:13:31,15.08838216,0.0001033,53.215,162.6573,81.5104,278.6005,4.6771e-05,4.57e-06,0.0,0 STARLINK-3619,1 51787U 22017V   23163.71772341  .00000457  00000-0  46771-4 0  9992,2 51787  53.2150 162.6573 0001033  81.5104 278.6005 15.08838216 72809,6917.886,95.438,540.465,539.036,0.0
51787.0,STARLINK-3619,PAYLOAD,2023-06-13 09:07:22,15.08836977,0.0001093,53.2153,159.684,81.033,279.0786,3.8637e-06,-2.26e-06,0.0,0 STARLINK-3619,1 51787U 22017V   23164.38012662 -.00000226  00000-0  38637-5 0  9997,2 51787  53.2153 159.6840 0001093  81.0330 279.0786 15.08836977 71269,6917.89,95.438,540.511,538.999,0.0
51787.0,STARLINK-3619,PAYLOAD,2023-06-14 08:58:09,15.08843981,0.0001199,53.216,155.2231,81.1644,278.9484,6.0679e-05,6.78e-06,0.0,0 STARLINK-3619,1 51787U 22017V   23165.37371998  .00000678  00000-0  60679-4 0  9997,2 51787  53.2160 155.2231 0001199  81.1644 278.9484 15.08843981 73054,6917.868,95.437,540.563,538.904,0.0
51787.0,STARLINK-3619,PAYLOAD,2023-06-14 16:55:06,15.08824046,0.0001444,53.2163,153.735,84.9559,275.1598,-8.2007e-05,-1.592e-05,0.0,0 STARLINK-3619,1 51787U 22017V   23165.70493952 -.00001592  00000-0 -82007-4 0  9996,2 51787  53.2163 153.7350 0001444  84.9559 275.1598 15.08824046 73103,6917.929,95.439,540.793,538.795,0.0
51787.0,STARLINK-3619,PAYLOAD,2023-06-15 02:27:23,15.08841498,0.0001193,53.216,151.9518,103.8357,256.2768,7.5024e-05,9.06e-06,0.0,0 STARLINK-3619,1 51787U 22017V   23166.10236058  .00000906  00000-0  75024-4 0  9990,2 51787  53.2160 151.9518 0001193 103.8357 256.2768 15.08841498 73169,6917.876,95.437,540.566,538.916,0.0
51787.0,STARLINK-3619,PAYLOAD,2023-06-15 08:48:56,15.08839744,0.0001164,53.216,150.7623,83.1449,276.9676,4.825e-05,4.8e-06,0.0,0 STARLINK-3619,1 51787U 22017V   23166.36732294  .00000480  00000-0  48250-4 0  9999,2 51787  53.2160 150.7623 0001164  83.1449 276.9676 15.08839744 71563,6917.881,95.438,540.551,538.941,0.0
51787.0,STARLINK-3619,PAYLOAD,2023-06-16 08:39:43,15.08839822,0.000121,53.216,146.3014,89.4338,270.6793,0.0001255,1.71e-05,0.0,0 STARLINK-3619,1 51787U 22017V   23167.36091872  .00001710  00000-0  12550-3 0  9990,2 51787  53.2160 146.3014 0001210  89.4338 270.6793 15.08839822 73353,6917.881,95.438,540.583,538.909,0.0
51787.0,STARLINK-3619,PAYLOAD,2023-06-17 08:30:30,15.08842699,0.0001183,53.2161,141.8415,85.711,274.4017,4.0308e-05,3.54e-06,0.0,0 STARLINK-3619,1 51787U 22017V   23168.35451973  .00000354  00000-0  40308-4 0  9998,2 51787  53.2161 141.8415 0001183  85.7110 274.4017 15.08842699 71866,6917.872,95.437,540.556,538.919,0.0
